start=new Date('2021-10-10T00:00:00.000Z').valueOf();
sats=[{"PERIOD":"95.593","MEAN_MOTION":"15.06392913","EPOCH":"2021-10-09T09:44:37.624128","TIME_SYSTEM":"UTC","RA_OF_ASC_NODE":"174.4529","ELEMENT_SET_NO":"999","EPHEMERIS_TYPE":"0","OBJECT_TYPE":"PAYLOAD","MEAN_ELEMENT_THEORY":"SGP4","COUNTRY_CODE":"US","SEMIMAJOR_AXIS":"6925.370","TLE_LINE1":"1 45405U 20019AX  21282.40599102  .00000151  00000-0  29027-4 0  9996","BSTAR":"0.00002902700000","GP_ID":"186726584","SITE":"AFETR","RCS_SIZE":"LARGE","OBJECT_ID":"2020-019AX","INCLINATION":"53.0550","APOAPSIS":"548.547","PERIAPSIS":"545.924","REV_AT_EPOCH":"8685","FILE":"3153808","LAUNCH_DATE":"2020-03-18","ECCENTRICITY":"0.00018940","OBJECT_NAME":"STARLINK-1263","DECAY_DATE":null,"MEAN_ANOMALY":"287.0628","CENTER_NAME":"EARTH","MEAN_MOTION_DDOT":"0.0000000000000","ARG_OF_PERICENTER":"73.0568","NORAD_CAT_ID":"45405","TLE_LINE2":"2 45405  53.0550 174.4529 0001894  73.0568 287.0628 15.06392913 86850","REF_FRAME":"TEME","MEAN_MOTION_DOT":"0.00000151","CLASSIFICATION_TYPE":"U"},{"MEAN_MOTION_DDOT":"0.0000000000000","MEAN_ANOMALY":"293.2768","CENTER_NAME":"EARTH","ARG_OF_PERICENTER":"66.8411","MEAN_MOTION_DOT":"-0.00001233","TLE_LINE2":"2 45406  53.0536 173.2144 0001809  66.8411 293.2768 15.06393607 86897","NORAD_CAT_ID":"45406","REF_FRAME":"TEME","CLASSIFICATION_TYPE":"U","REV_AT_EPOCH":"8689","PERIAPSIS":"545.980","FILE":"3153808","LAUNCH_DATE":"2020-03-18","DECAY_DATE":null,"OBJECT_NAME":"STARLINK-1265","ECCENTRICITY":"0.00018090","MEAN_ELEMENT_THEORY":"SGP4","COUNTRY_CODE":"US","SEMIMAJOR_AXIS":"6925.368","BSTAR":"-0.00006388400000","TLE_LINE1":"1 45406U 20019AY  21282.67875985 -.00001233  00000-0 -63884-4 0  9995","SITE":"AFETR","INCLINATION":"53.0536","RCS_SIZE":"LARGE","OBJECT_ID":"2020-019AY","GP_ID":"186726840","APOAPSIS":"548.486","PERIOD":"95.593","MEAN_MOTION":"15.06393607","TIME_SYSTEM":"UTC","EPOCH":"2021-10-09T16:17:24.851040","RA_OF_ASC_NODE":"173.2144","OBJECT_TYPE":"PAYLOAD","EPHEMERIS_TYPE":"0","ELEMENT_SET_NO":"999"},{"ELEMENT_SET_NO":"999","EPHEMERIS_TYPE":"0","OBJECT_TYPE":"PAYLOAD","RA_OF_ASC_NODE":"173.1539","EPOCH":"2021-10-09T16:38:39.950880","TIME_SYSTEM":"UTC","MEAN_MOTION":"15.06393128","PERIOD":"95.593","APOAPSIS":"548.621","GP_ID":"186727587","SITE":"AFETR","RCS_SIZE":"LARGE","INCLINATION":"53.0547","OBJECT_ID":"2020-019AZ","SEMIMAJOR_AXIS":"6925.370","TLE_LINE1":"1 45407U 20019AZ  21282.69351795  .00000690  00000-0  65247-4 0  9995","BSTAR":"0.00006524700000","MEAN_ELEMENT_THEORY":"SGP4","COUNTRY_CODE":"US","OBJECT_NAME":"STARLINK-1275","ECCENTRICITY":"0.00020020","DECAY_DATE":null,"LAUNCH_DATE":"2020-03-18","FILE":"3153808","PERIAPSIS":"545.848","REV_AT_EPOCH":"8689","CLASSIFICATION_TYPE":"U","TLE_LINE2":"2 45407  53.0547 173.1539 0002002  61.6568 298.4622 15.06393128 86893","NORAD_CAT_ID":"45407","REF_FRAME":"TEME","MEAN_MOTION_DOT":"0.00000690","ARG_OF_PERICENTER":"61.6568","CENTER_NAME":"EARTH","MEAN_ANOMALY":"298.4622","MEAN_MOTION_DDOT":"0.0000000000000"},{"MEAN_MOTION_DOT":"0.00000658","REF_FRAME":"TEME","NORAD_CAT_ID":"45408","TLE_LINE2":"2 45408  53.0533 203.9968 0001500  66.4599 293.6547 15.06397165 86456","CLASSIFICATION_TYPE":"U","MEAN_MOTION_DDOT":"0.0000000000000","MEAN_ANOMALY":"293.6547","CENTER_NAME":"EARTH","ARG_OF_PERICENTER":"66.4599","LAUNCH_DATE":"2020-03-18","DECAY_DATE":null,"OBJECT_NAME":"STARLINK-1278","ECCENTRICITY":"0.00015000","REV_AT_EPOCH":"8645","PERIAPSIS":"546.183","FILE":"3153239","INCLINATION":"53.0533","RCS_SIZE":"LARGE","OBJECT_ID":"2020-019BA","SITE":"AFETR","GP_ID":"186625816","APOAPSIS":"548.261","COUNTRY_CODE":"US","MEAN_ELEMENT_THEORY":"SGP4","TLE_LINE1":"1 45408U 20019BA  21282.50642844  .00000658  00000-0  63070-4 0  9990","BSTAR":"0.00006307000000","SEMIMAJOR_AXIS":"6925.357","RA_OF_ASC_NODE":"203.9968","EPHEMERIS_TYPE":"0","OBJECT_TYPE":"PAYLOAD","ELEMENT_SET_NO":"999","MEAN_MOTION":"15.06397165","PERIOD":"95.592","TIME_SYSTEM":"UTC","EPOCH":"2021-10-09T12:09:15.417216"},{"SEMIMAJOR_AXIS":"6925.359","BSTAR":"-0.00000244790000","TLE_LINE1":"1 45409U 20019BB  21282.43547529 -.00000318  00000-0 -24479-5 0  9993","MEAN_ELEMENT_THEORY":"SGP4","COUNTRY_CODE":"US","APOAPSIS":"548.369","SITE":"AFETR","INCLINATION":"53.0550","RCS_SIZE":"LARGE","OBJECT_ID":"2020-019BB","GP_ID":"186726085","TIME_SYSTEM":"UTC","EPOCH":"2021-10-09T10:27:05.065056","PERIOD":"95.592","MEAN_MOTION":"15.06396604","OBJECT_TYPE":"PAYLOAD","EPHEMERIS_TYPE":"0","ELEMENT_SET_NO":"999","RA_OF_ASC_NODE":"174.3168","ARG_OF_PERICENTER":"82.0581","MEAN_MOTION_DDOT":"0.0000000000000","MEAN_ANOMALY":"278.0595","CENTER_NAME":"EARTH","CLASSIFICATION_TYPE":"U","MEAN_MOTION_DOT":"-0.00000318","NORAD_CAT_ID":"45409","TLE_LINE2":"2 45409  53.0550 174.3168 0001653  82.0581 278.0595 15.06396604 86865","REF_FRAME":"TEME","FILE":"3153808","REV_AT_EPOCH":"8686","PERIAPSIS":"546.079","DECAY_DATE":null,"OBJECT_NAME":"STARLINK-1282","ECCENTRICITY":"0.00016530","LAUNCH_DATE":"2020-03-18"},{"COUNTRY_CODE":"US","MEAN_ELEMENT_THEORY":"SGP4","BSTAR":"0.00007617800000","TLE_LINE1":"1 45410U 20019BC  21282.79144491  .00009321  00000-0  76178-4 0  9998","SEMIMAJOR_AXIS":"6732.968","OBJECT_ID":"2020-019BC","RCS_SIZE":"LARGE","INCLINATION":"53.0557","SITE":"AFETR","GP_ID":"186727340","APOAPSIS":"356.338","PERIOD":"91.637","MEAN_MOTION":"15.71422457","TIME_SYSTEM":"UTC","EPOCH":"2021-10-09T18:59:40.840224","RA_OF_ASC_NODE":"127.4584","EPHEMERIS_TYPE":"0","OBJECT_TYPE":"PAYLOAD","ELEMENT_SET_NO":"999","MEAN_MOTION_DDOT":"0.0000000000000","MEAN_ANOMALY":"324.6744","CENTER_NAME":"EARTH","ARG_OF_PERICENTER":"35.4422","MEAN_MOTION_DOT":"0.00009321","REF_FRAME":"TEME","NORAD_CAT_ID":"45410","TLE_LINE2":"2 45410  53.0557 127.4584 0002235  35.4422 324.6744 15.71422457 87535","CLASSIFICATION_TYPE":"U","REV_AT_EPOCH":"8753","PERIAPSIS":"353.328","FILE":"3153808","LAUNCH_DATE":"2020-03-18","DECAY_DATE":null,"OBJECT_NAME":"STARLINK-1285","ECCENTRICITY":"0.00022350"},{"LAUNCH_DATE":"2020-03-18","OBJECT_NAME":"STARLINK-1293","ECCENTRICITY":"0.00018660","DECAY_DATE":null,"PERIAPSIS":"545.943","REV_AT_EPOCH":"8684","FILE":"3153337","NORAD_CAT_ID":"45411","TLE_LINE2":"2 45411  53.0537 175.4334 0001866  68.2500 291.8688 15.06392860 86847","REF_FRAME":"TEME","MEAN_MOTION_DOT":"-0.00001857","CLASSIFICATION_TYPE":"U","CENTER_NAME":"EARTH","MEAN_ANOMALY":"291.8688","MEAN_MOTION_DDOT":"0.0000000000000","ARG_OF_PERICENTER":"68.2500","RA_OF_ASC_NODE":"175.4334","ELEMENT_SET_NO":"999","OBJECT_TYPE":"PAYLOAD","EPHEMERIS_TYPE":"0","MEAN_MOTION":"15.06392860","PERIOD":"95.593","EPOCH":"2021-10-09T04:26:10.289184","TIME_SYSTEM":"UTC","GP_ID":"186648891","SITE":"AFETR","RCS_SIZE":"LARGE","INCLINATION":"53.0537","OBJECT_ID":"2020-019BD","APOAPSIS":"548.528","MEAN_ELEMENT_THEORY":"SGP4","COUNTRY_CODE":"US","SEMIMAJOR_AXIS":"6925.370","TLE_LINE1":"1 45411U 20019BD  21282.18484131 -.00001857  00000-0 -10580-3 0  9992","BSTAR":"-0.00010580000000"},{"NORAD_CAT_ID":"45412","TLE_LINE2":"2 45412  53.0550 174.3984 0001714  66.3468 293.7700 15.06392451 86859","REF_FRAME":"TEME","MEAN_MOTION_DOT":"-0.00001782","CLASSIFICATION_TYPE":"U","MEAN_ANOMALY":"293.7700","CENTER_NAME":"EARTH","MEAN_MOTION_DDOT":"0.0000000000000","ARG_OF_PERICENTER":"66.3468","LAUNCH_DATE":"2020-03-18","ECCENTRICITY":"0.00017140","OBJECT_NAME":"STARLINK-1296","DECAY_DATE":null,"PERIAPSIS":"546.050","REV_AT_EPOCH":"8685","FILE":"3153808","GP_ID":"186726340","SITE":"AFETR","RCS_SIZE":"LARGE","OBJECT_ID":"2020-019BE","INCLINATION":"53.0550","APOAPSIS":"548.424","MEAN_ELEMENT_THEORY":"SGP4","COUNTRY_CODE":"US","SEMIMAJOR_AXIS":"6925.372","BSTAR":"-0.00010076000000","TLE_LINE1":"1 45412U 20019BE  21282.41705463 -.00001782  00000-0 -10076-3 0  9990","RA_OF_ASC_NODE":"174.3984","ELEMENT_SET_NO":"999","EPHEMERIS_TYPE":"0","OBJECT_TYPE":"PAYLOAD","MEAN_MOTION":"15.06392451","PERIOD":"95.593","EPOCH":"2021-10-09T10:00:33.520032","TIME_SYSTEM":"UTC"},{"COUNTRY_CODE":"US","MEAN_ELEMENT_THEORY":"SGP4","TLE_LINE1":"1 45413U 20019BF  21282.11480963 -.00001902  00000-0 -10886-3 0  9996","BSTAR":"-0.00010886000000","SEMIMAJOR_AXIS":"6925.379","GP_ID":"186705417","OBJECT_ID":"2020-019BF","RCS_SIZE":"LARGE","INCLINATION":"53.0548","SITE":"AFETR","APOAPSIS":"548.579","MEAN_MOTION":"15.06390188","PERIOD":"95.593","EPOCH":"2021-10-09T02:45:19.552032","TIME_SYSTEM":"UTC","RA_OF_ASC_NODE":"175.7593","ELEMENT_SET_NO":"999","OBJECT_TYPE":"PAYLOAD","EPHEMERIS_TYPE":"0","MEAN_ANOMALY":"295.4308","CENTER_NAME":"EARTH","MEAN_MOTION_DDOT":"0.0000000000000","ARG_OF_PERICENTER":"64.6881","REF_FRAME":"TEME","TLE_LINE2":"2 45413  53.0548 175.7593 0001928  64.6881 295.4308 15.06390188 86909","NORAD_CAT_ID":"45413","MEAN_MOTION_DOT":"-0.00001902","CLASSIFICATION_TYPE":"U","PERIAPSIS":"545.908","REV_AT_EPOCH":"8690","FILE":"3153678","LAUNCH_DATE":"2020-03-18","ECCENTRICITY":"0.00019280","OBJECT_NAME":"STARLINK-1298","DECAY_DATE":null},{"TIME_SYSTEM":"UTC","EPOCH":"2021-10-09T10:21:47.111328","PERIOD":"95.592","MEAN_MOTION":"15.06395007","OBJECT_TYPE":"PAYLOAD","EPHEMERIS_TYPE":"0","ELEMENT_SET_NO":"999","RA_OF_ASC_NODE":"174.3362","TLE_LINE1":"1 45414U 20019BG  21282.43179527 -.00001713  00000-0 -96113-4 0  9991","BSTAR":"-0.00009611300000","SEMIMAJOR_AXIS":"6925.364","COUNTRY_CODE":"US","MEAN_ELEMENT_THEORY":"SGP4","APOAPSIS":"548.342","OBJECT_ID":"2020-019BG","RCS_SIZE":"LARGE","INCLINATION":"53.0554","SITE":"AFETR","GP_ID":"186726841","FILE":"3153808","REV_AT_EPOCH":"8684","PERIAPSIS":"546.115","DECAY_DATE":null,"ECCENTRICITY":"0.00016080","OBJECT_NAME":"STARLINK-1309","LAUNCH_DATE":"2020-03-18","ARG_OF_PERICENTER":"79.8033","MEAN_MOTION_DDOT":"0.0000000000000","CENTER_NAME":"EARTH","MEAN_ANOMALY":"280.3138","CLASSIFICATION_TYPE":"U","MEAN_MOTION_DOT":"-0.00001713","REF_FRAME":"TEME","TLE_LINE2":"2 45414  53.0554 174.3362 0001608  79.8033 280.3138 15.06395007 86840","NORAD_CAT_ID":"45414"}];
